[{"OBJECT_NAME":"STARLINK-3093","OBJECT_ID":"2021-082M","EPOCH":"2026-03-09T21:50:30.209568","MEAN_MOTION":14.98330401,"ECCENTRICITY":0.0002789,"INCLINATION":69.9983,"RA_OF_ASC_NODE":293.9108,"ARG_OF_PERICENTER":269.3238,"MEAN_ANOMALY":90.7602,"EPHEMERIS_TYPE":0,"CLASSIFICATION_TYPE":"U","NORAD_CAT_ID":49141,"ELEMENT_SET_NO":999,"REV_AT_EPOCH":24721,"BSTAR":1.7752566e-5,"MEAN_MOTION_DOT":1.19e-6,"MEAN_MOTION_DDOT":0},{"OBJECT_NAME":"CENTAURI-7","OBJECT_ID":"2025-009DD","EPOCH":"2026-03-09T18:21:07.569216","MEAN_MOTION":14.97068612,"ECCENTRICITY":0.00019728,"INCLINATION":97.7123,"RA_OF_ASC_NODE":150.3372,"ARG_OF_PERICENTER":133.1699,"MEAN_ANOMALY":226.9688,"EPHEMERIS_TYPE":0,"CLASSIFICATION_TYPE":"U","NORAD_CAT_ID":62708,"ELEMENT_SET_NO":999,"REV_AT_EPOCH":6258,"BSTAR":0.00048082234,"MEAN_MOTION_DOT":5.487e-5,"MEAN_MOTION_DDOT":0}]
